JILIN-1                 
1 40961U 15057D   26202.26540387  .00000533  00000+0  79974-4 0  9995
2 40961  97.6524 199.9433 0017737 147.7974 212.4325 14.78207357580643
JILIN-1 03              
1 41914U 17002B   26202.29002263  .00010234  00000+0  23916-3 0  9998
2 41914  97.1959 208.9128 0007502  63.0672 297.1341 15.42331250527118
JILIN-1 04              
1 43022U 17074A   26202.26563248  .00010978  00000+0  24900-3 0  9990
2 43022  97.4872 312.8112 0005138  84.3618 275.8215 15.43236525479528
JILIN-1 05              
1 43023U 17074B   26202.23422742  .00006292  00000+0  19157-3 0  9993
2 43023  97.4877 308.8640 0006592 108.0888 252.1073 15.34344278479225
JILIN-1 06              
1 43024U 17074C   26202.27652747  .00004931  00000+0  15206-3 0  9997
2 43024  97.4801 305.8700 0008366 116.3199 243.8904 15.34042342479064
JILIN-1 07              
1 43159U 18008E   26202.25207770  .00006419  00000+0  18987-3 0  9996
2 43159  97.1771 221.2829 0006261 300.8022  59.2605 15.35226276470223
JILIN-1 08              
1 43160U 18008F   26202.21147588  .00004368  00000+0  13488-3 0  9996
2 43160  97.1808 220.5206 0004624 327.2348  32.8608 15.34052419470160
JILIN-1 09              
1 43943U 19005B   26202.26603582  .00003302  00000+0  15308-3 0  9999
2 43943  97.4739 296.9445 0001762  21.3098 338.8210 15.20772563414329
JILIN-1 10              
1 43946U 19005E   26202.22677554  .00004324  00000+0  17064-3 0  9994
2 43946  97.4791 301.0410 0009114 150.2824 209.8934 15.26047629414502
